[
    {
        "CCSDS_OMM_VERS": "3.0",
        "COMMENT": "GENERATED VIA SPACE-TRACK.ORG API",
        "CREATION_DATE": "2025-03-02T09:28:08",
        "ORIGINATOR": "18 SPCS",
        "OBJECT_NAME": "NAVSTAR 80 (USA 309)",
        "OBJECT_ID": "2020-078A",
        "CENTER_NAME": "EARTH",
        "REF_FRAME": "TEME",
        "TIME_SYSTEM": "UTC",
        "MEAN_ELEMENT_THEORY": "SGP4",
        "EPOCH": "2025-03-01T16:12:40.123296",
        "MEAN_MOTION": "2.00558669",
        "ECCENTRICITY": "0.00546670",
        "INCLINATION": "54.0936",
        "RA_OF_ASC_NODE": "229.9473",
        "ARG_OF_PERICENTER": "198.6810",
        "MEAN_ANOMALY": "203.5992",
        "EPHEMERIS_TYPE": "0",
        "CLASSIFICATION_TYPE": "U",
        "NORAD_CAT_ID": "46826",
        "ELEMENT_SET_NO": "999",
        "REV_AT_EPOCH": "3203",
        "BSTAR": "0.00000000000000",
        "MEAN_MOTION_DOT": "0.00000046",
        "MEAN_MOTION_DDOT": "0.0000000000000",
        "SEMIMAJOR_AXIS": "26560.784",
        "PERIOD": "717.994",
        "APOAPSIS": "20327.848",
        "PERIAPSIS": "20037.449",
        "OBJECT_TYPE": "PAYLOAD",
        "RCS_SIZE": "LARGE",
        "COUNTRY_CODE": "US",
        "LAUNCH_DATE": "2020-11-05",
        "SITE": "AFETR",
        "DECAY_DATE": null,
        "FILE": "4656805",
        "GP_ID": "282050970",
        "TLE_LINE0": "0 NAVSTAR 80 (USA 309)",
        "TLE_LINE1": "1 46826U 20078A   25060.67546439  .00000046  00000-0  00000-0 0  9990",
        "TLE_LINE2": "2 46826  54.0936 229.9473 0054667 198.6810 203.5992  2.00558669 32031"
    }
]